
BIOMASS
1 63772U 25090A   26169.46532683  .00000158  00000+0  36300-4 0  9991
2 63772  98.0739 356.7637 0001346  96.2561 263.8797 14.67536694 60877

CAS500-2
1 69013U 26100AK  26170.25796213  .00005418  00000+0  24991-3 0  9994
2 69013  97.4071  68.0769 0010508  28.5046 331.6763 15.20610687  7129

CAS500-3
1 66655U 25274F   26169.76155854  .00000974  00000+0  11111-3 0  9990
2 66655  97.7445  97.7768 0006795 106.1386 254.0579 14.88324084 30380

CO3D 1
1 64903U 25156E   26170.26092204  .00004125  00000+0  19354-3 0  9998
2 64903  97.4325 248.8234 0001327 112.3211 247.8165 15.20210064 49848

CO3D 2
1 64902U 25156D   26170.26076884  .00003367  00000+0  15855-3 0  9992
2 64902  97.4328 248.8231 0001505 106.6979 253.4422 15.20210624 49843

CO3D 3
1 64900U 25156B   26170.22813989  .00003582  00000+0  16848-3 0  9993
2 64900  97.4328 248.8920 0001576 128.7595 231.3781 15.20208577 49840

CO3D 4
1 64901U 25156C   26169.83334906  .00000219  00000+0  13217-4 0  9998
2 64901  97.4333 248.5023 0000112   3.6734 356.4502 15.20208932 49787

CSG-3
1 67304U 26001A   26170.08933426  .00000236  00000+0  36247-4 0  9996
2 67304  97.8888 353.6636 0001379  94.6973 265.4398 14.82154840 24741

GOSAT-GW (IBUKI GW)
1 64694U 25141A   26170.30377544  .00000027  00000+0  13228-4 0  9999
2 64694  98.0573 107.5865 0001441  83.7648 276.3721 14.67554270 52153

IONOSFERA-M 2
1 61736U 24199B   26170.26753369  .00000041  00000+0  38110-4 0  9996
2 61736  98.7169  43.3284 0000964  37.9492 322.1754 14.22757983131122

IONOSFERA-M 3
1 64876U 25155A   26170.28709383  .00000041  00000+0  38257-4 0  9998
2 64876  98.6032 132.1393 0001131 153.2751 206.8486 14.21486762 46705

IONOSFERA-M 4
1 64877U 25155B   26170.32193214  .00000036  00000+0  35872-4 0  9998
2 64877  98.6031 132.0906 0001119 120.0775 240.0513 14.21488964 46705

MICROCARB
1 64899U 25156A   26170.18856982  .00000389  00000+0  69250-4 0  9993
2 64899  97.9831 247.2902 0014994 265.2363  94.7132 14.72327310 48261

PRSC-E03
1 68835U 26092A   26170.17650350  .00002176  00000+0  15106-3 0  9993
2 68835  38.0012  77.9496 0003368  20.7877 339.3021 15.06677040  8251

PRSC-EO1
1 62725U 25012A   26170.30158772  .00005321  00000+0  26772-3 0  9998
2 62725  97.4222 242.7204 0004908 243.1116 116.9617 15.17630714 78517

PRSC-S1
1 65055U 25164A   26170.31914822  .00003673  00000+0  25619-3 0  9999
2 65055  41.1304 275.8053 0006273 358.0911   1.9878 15.06474062 48753

SENTINEL-6B
1 66514U 25264A   26170.27195774 -.00000056  00000+0  22647-4 0  9995
2 66514  66.0397 130.8483 0008005 269.1703  90.8395 12.80929967 27436
