OBJECT_NAME,OBJECT_ID,EPOCH,MEAN_MOTION,ECCENTRICITY,INCLINATION,RA_OF_ASC_NODE,ARG_OF_PERICENTER,MEAN_ANOMALY,EPHEMERIS_TYPE,CLASSIFICATION_TYPE,NORAD_CAT_ID,ELEMENT_SET_NO,REV_AT_EPOCH,BSTAR,MEAN_MOTION_DOT,MEAN_MOTION_DDOT
IONOSFERA-M 2,2024-199B,2026-06-19T06:25:14.910816,14.22757983,.00009641,98.7169,43.3284,37.9492,322.1754,0,U,61736,999,13112,.38109962E-4,.41E-6,0
PRSC-EO1,2025-012A,2026-06-19T07:14:17.179008,15.17630714,.0004908,97.4222,242.7204,243.1116,116.9617,0,U,62725,999,7851,.26771775E-3,.5321E-4,0
BIOMASS,2025-090A,2026-06-18T11:10:04.238112,14.67536694,.0001346,98.0739,356.7637,96.2561,263.8797,0,U,63772,999,6087,.363E-4,.158E-5,0
GOSAT-GW (IBUKI GW),2025-141A,2026-06-19T07:17:26.198016,14.67554270,.00014412,98.0573,107.5865,83.7648,276.3721,0,U,64694,999,5215,.13228195E-4,.27E-6,0
IONOSFERA-M 3,2025-155A,2026-06-19T06:53:24.906912,14.21486762,.00011319,98.6032,132.1393,153.2751,206.8486,0,U,64876,999,4670,.38256508E-4,.41E-6,0
IONOSFERA-M 4,2025-155B,2026-06-19T07:43:34.936896,14.21488964,.00011195,98.6031,132.0906,120.0775,240.0513,0,U,64877,999,4670,.358718E-4,.36E-6,0
MICROCARB,2025-156A,2026-06-19T04:31:32.432448,14.72327310,.00149941,97.9831,247.2902,265.2363,94.7132,0,U,64899,999,4826,.69250441E-4,.389E-5,0
CO3D 3,2025-156B,2026-06-19T05:28:31.286496,15.20208577,.00015768,97.4328,248.8920,128.7595,231.3781,0,U,64900,999,4984,.16847749E-3,.3582E-4,0
CO3D 4,2025-156C,2026-06-18T20:00:01.358784,15.20208932,.00001122,97.4333,248.5023,3.6734,356.4502,0,U,64901,999,4978,.13216641E-4,.219E-5,0
CO3D 2,2025-156D,2026-06-19T06:15:30.427776,15.20210624,.00015052,97.4328,248.8231,106.6979,253.4422,0,U,64902,999,4984,.15855329E-3,.3367E-4,0
CO3D 1,2025-156E,2026-06-19T06:15:43.664256,15.20210064,.00013278,97.4325,248.8234,112.3211,247.8165,0,U,64903,999,4984,.19353942E-3,.4125E-4,0
PRSC-S1,2025-164A,2026-06-19T07:39:34.406208,15.06474062,.0006273,41.1304,275.8053,358.0911,1.9878,0,U,65055,999,4875,.2561868E-3,.3673E-4,0
SENTINEL-6B,2025-264A,2026-06-19T06:31:37.148736,12.80929967,.00080053,66.0397,130.8483,269.1703,90.8395,0,U,66514,999,2743,.22647288E-4,-.56E-6,0
CAS500-3,2025-274F,2026-06-18T18:16:38.657856,14.88324084,.00067952,97.7445,97.7768,106.1386,254.0579,0,U,66655,999,3038,.11110963E-3,.974E-5,0
CSG-3,2026-001A,2026-06-19T02:08:38.480064,14.82154840,.00013797,97.8888,353.6636,94.6973,265.4398,0,U,67304,999,2474,.36247277E-4,.236E-5,0
PRSC-E03,2026-092A,2026-06-19T04:14:09.902400,15.06677040,.00033681,38.0012,77.9496,20.7877,339.3021,0,U,68835,999,825,.15106163E-3,.2176E-4,0
CAS500-2,2026-100AK,2026-06-19T06:11:27.928032,15.20610687,.00105083,97.4071,68.0769,28.5046,331.6763,0,U,69013,999,712,.24990864E-3,.5418E-4,0
